[{"OBJECT_NAME":"STARLINK-33674","OBJECT_ID":"2025-057Y","EPOCH":"2026-03-09T22:21:17.636832","MEAN_MOTION":15.27581382,"ECCENTRICITY":4.501e-5,"INCLINATION":42.9993,"RA_OF_ASC_NODE":29.549,"ARG_OF_PERICENTER":243.4812,"MEAN_ANOMALY":116.5993,"EPHEMERIS_TYPE":0,"CLASSIFICATION_TYPE":"U","NORAD_CAT_ID":63329,"ELEMENT_SET_NO":999,"REV_AT_EPOCH":5581,"BSTAR":0.0010336035,"MEAN_MOTION_DOT":0.00028291,"MEAN_MOTION_DDOT":0},{"OBJECT_NAME":"CZ-2C DEB","OBJECT_ID":"2018-056F","EPOCH":"2026-03-09T10:57:26.102304","MEAN_MOTION":15.27739248,"ECCENTRICITY":0.00119172,"INCLINATION":98.1188,"RA_OF_ASC_NODE":250.032,"ARG_OF_PERICENTER":4.6998,"MEAN_ANOMALY":355.4349,"EPHEMERIS_TYPE":0,"CLASSIFICATION_TYPE":"U","NORAD_CAT_ID":43534,"ELEMENT_SET_NO":999,"REV_AT_EPOCH":41855,"BSTAR":0.00085537155,"MEAN_MOTION_DOT":0.00023193,"MEAN_MOTION_DDOT":0}]
